STARLINK-31638          
1 59489U 24071F   26068.08002303 -.00005336  00000+0 -18453-3 0  9999
2 59489  43.0038 343.0766 0001595 263.3167  96.7503 15.27574897108118
TRANSPORTER-12 OBJECT BA
1 62657U 25009BA  26068.70118713  .00011330  00000+0  42733-3 0  9991
2 62657  97.3985 151.1390 0000403 234.6623 125.4579 15.27214003 63739
